{"type": "FeatureCollection", "features": [ {"type": "Feature", "properties": {"norad_id": 66916, "name": "HULIANWANG DIGUI-106", "group": "last-30-days", "lat": -2.3528380092992696, "lon": -79.31556326557894, "alt_km": 883.3696810816, "timestamp": "2025-12-17T07:00:45.614254+00:00", "meta": {"OBJECT_NAME": "HULIANWANG DIGUI-106", "OBJECT_ID": "2025-285B", "EPOCH": "2025-12-16T23:18:33.967008", "MEAN_MOTION": 14.03701573, "ECCENTRICITY": 0.00067815, "INCLINATION": 50.0056, "RA_OF_ASC_NODE": 100.0152, "ARG_OF_PERICENTER": 290.1353, "MEAN_ANOMALY": 69.8821, "EPHEMERIS_TYPE": 0, "CLASSIFICATION_TYPE": "U", "NORAD_CAT_ID": 66916, "ELEMENT_SET_NO": 999, "REV_AT_EPOCH": 150, "BSTAR": -1.5534999e-05, "MEAN_MOTION_DOT": -1.76e-06, "MEAN_MOTION_DDOT": 0}, "tle": {"line1": "1 66916U 25285B   25350.97122647 -.00000176  00000+0 -15535-4 0  9991", "line2": "2 66916  50.0056 100.0152 0006781 290.1353  69.8821 14.03701573  1501"}}, "geometry": {"type": "Point", "coordinates": [-79.31556326557894, -2.3528380092992696]}}, {"type": "Feature", "properties": {"norad_id": 66917, "name": "HULIANWANG DIGUI-107", "group": "last-30-days", "lat": -9.84401280561504, "lon": -72.93937244093559, "alt_km": 884.5093526816836, "timestamp": "2025-12-17T07:00:45.614266+00:00", "meta": {"OBJECT_NAME": "HULIANWANG DIGUI-107", "OBJECT_ID": "2025-285C", "EPOCH": "2025-12-16T23:15:45.118080", "MEAN_MOTION": 14.03661807, "ECCENTRICITY": 0.00074539, "INCLINATION": 50.0021, "RA_OF_ASC_NODE": 99.9992, "ARG_OF_PERICENTER": 299.5406, "MEAN_ANOMALY": 60.4755, "EPHEMERIS_TYPE": 0, "CLASSIFICATION_TYPE": "U", "NORAD_CAT_ID": 66917, "ELEMENT_SET_NO": 999, "REV_AT_EPOCH": 150, "BSTAR": -1.4823738e-05, "MEAN_MOTION_DOT": -1.75e-06, "MEAN_MOTION_DDOT": 0}, "tle": {"line1": "1 66917U 25285C   25350.96927220 -.00000175  00000+0 -14824-4 0  9990", "line2": "2 66917  50.0021  99.9992 0007453 299.5406  60.4755 14.03661807  1509"}}, "geometry": {"type": "Point", "coordinates": [-72.93937244093559, -9.84401280561504]}}, {"type": "Feature", "properties": {"norad_id": 66918, "name": "HULIANWANG DIGUI-108", "group": "last-30-days", "lat": -13.395568837625722, "lon": -69.78890932977785, "alt_km": 884.0509839170672, "timestamp": "2025-12-17T07:00:45.614277+00:00", "meta": {"OBJECT_NAME": "HULIANWANG DIGUI-108", "OBJECT_ID": "2025-285D", "EPOCH": "2025-12-16T23:14:23.630784", "MEAN_MOTION": 14.03600889, "ECCENTRICITY": 0.0006582, "INCLINATION": 50.0042, "RA_OF_ASC_NODE": 99.9973, "ARG_OF_PERICENTER": 293.7221, "MEAN_ANOMALY": 66.2993, "EPHEMERIS_TYPE": 0, "CLASSIFICATION_TYPE": "U", "NORAD_CAT_ID": 66918, "ELEMENT_SET_NO": 999, "REV_AT_EPOCH": 150, "BSTAR": 5.6993842e-05, "MEAN_MOTION_DOT": -6.1e-07, "MEAN_MOTION_DDOT": 0}, "tle": {"line1": "1 66918U 25285D   25350.96832906 -.00000061  00000+0  56994-4 0  9994", "line2": "2 66918  50.0042  99.9973 0006582 293.7221  66.2993 14.03600889  1506"}}, "geometry": {"type": "Point", "coordinates": [-69.78890932977785, -13.395568837625722]}}, {"type": "Feature", "properties": {"norad_id": 66919, "name": "HULIANWANG DIGUI-109", "group": "last-30-days", "lat": -17.34178600651492, "lon": -66.1311269799953, "alt_km": 883.9173791194025, "timestamp": "2025-12-17T07:00:45.614289+00:00", "meta": {"OBJECT_NAME": "HULIANWANG DIGUI-109", "OBJECT_ID": "2025-285E", "EPOCH": "2025-12-16T23:12:59.903136", "MEAN_MOTION": 14.03955536, "ECCENTRICITY": 0.00078329, "INCLINATION": 50.0067, "RA_OF_ASC_NODE": 99.9964, "ARG_OF_PERICENTER": 305.005, "MEAN_ANOMALY": 55.0119, "EPHEMERIS_TYPE": 0, "CLASSIFICATION_TYPE": "U", "NORAD_CAT_ID": 66919, "ELEMENT_SET_NO": 999, "REV_AT_EPOCH": 150, "BSTAR": -1.3765797e-05, "MEAN_MOTION_DOT": -1.73e-06, "MEAN_MOTION_DDOT": 0}, "tle": {"line1": "1 66919U 25285E   25350.96735999 -.00000173  00000+0 -13766-4 0  9994", "line2": "2 66919  50.0067  99.9964 0007832 305.0050  55.0119 14.03955536  1508"}}, "geometry": {"type": "Point", "coordinates": [-66.1311269799953, -17.34178600651492]}}, {"type": "Feature", "properties": {"norad_id": 66920, "name": "HULIANWANG DIGUI-110", "group": "last-30-days", "lat": -21.059172233365413, "lon": -62.47667209054696, "alt_km": 882.9560904851105, "timestamp": "2025-12-17T07:00:45.614299+00:00", "meta": {"OBJECT_NAME": "HULIANWANG DIGUI-110", "OBJECT_ID": "2025-285F", "EPOCH": "2025-12-16T23:11:36.165120", "MEAN_MOTION": 14.04068646, "ECCENTRICITY": 0.00055818, "INCLINATION": 50.0111, "RA_OF_ASC_NODE": 99.9963, "ARG_OF_PERICENTER": 302.4106, "MEAN_ANOMALY": 57.6258, "EPHEMERIS_TYPE": 0, "CLASSIFICATION_TYPE": "U", "NORAD_CAT_ID": 66920, "ELEMENT_SET_NO": 999, "REV_AT_EPOCH": 150, "BSTAR": 8.7226191e-05, "MEAN_MOTION_DOT": -1.3e-07, "MEAN_MOTION_DDOT": 0}, "tle": {"line1": "1 66920U 25285F   25350.96639080 -.00000013  00000+0  87226-4 0  9994", "line2": "2 66920  50.0111  99.9963 0005581 302.4106  57.6258 14.04068646  1501"}}, "geometry": {"type": "Point", "coordinates": [-62.47667209054696, -21.059172233365413]}}, {"type": "Feature", "properties": {"norad_id": 66921, "name": "HULIANWANG DIGUI-111", "group": "last-30-days", "lat": -24.39495237272638, "lon": -58.96583562105829, "alt_km": 881.6828122702846, "timestamp": "2025-12-17T07:00:45.614311+00:00", "meta": {"OBJECT_NAME": "HULIANWANG DIGUI-111", "OBJECT_ID": "2025-285G", "EPOCH": "2025-12-16T16:20:37.752864", "MEAN_MOTION": 14.04579189, "ECCENTRICITY": 0.00066737, "INCLINATION": 50.0126, "RA_OF_ASC_NODE": 101.1554, "ARG_OF_PERICENTER": 307.6812, "MEAN_ANOMALY": 52.3487, "EPHEMERIS_TYPE": 0, "CLASSIFICATION_TYPE": "U", "NORAD_CAT_ID": 66921, "ELEMENT_SET_NO": 999, "REV_AT_EPOCH": 146, "BSTAR": -8.102427e-06, "MEAN_MOTION_DOT": -1.65e-06, "MEAN_MOTION_DDOT": 0}, "tle": {"line1": "1 66921U 25285G   25350.68099251 -.00000165  00000+0 -81024-5 0  9994", "line2": "2 66921  50.0126 101.1554 0006673 307.6812  52.3487 14.04579189  1464"}}, "geometry": {"type": "Point", "coordinates": [-58.96583562105829, -24.39495237272638]}}, {"type": "Feature", "properties": {"norad_id": 66922, "name": "HULIANWANG DIGUI-112", "group": "last-30-days", "lat": -27.80741448827265, "lon": -55.07685830127189, "alt_km": 881.499337803356, "timestamp": "2025-12-17T07:00:45.614322+00:00", "meta": {"OBJECT_NAME": "HULIANWANG DIGUI-112", "OBJECT_ID": "2025-285H", "EPOCH": "2025-12-16T23:09:07.297056", "MEAN_MOTION": 14.04783562, "ECCENTRICITY": 0.00065676, "INCLINATION": 50.0087, "RA_OF_ASC_NODE": 99.9841, "ARG_OF_PERICENTER": 316.8536, "MEAN_ANOMALY": 43.1853, "EPHEMERIS_TYPE": 0, "CLASSIFICATION_TYPE": "U", "NORAD_CAT_ID": 66922, "ELEMENT_SET_NO": 999, "REV_AT_EPOCH": 150, "BSTAR": 5.579133e-06, "MEAN_MOTION_DOT": -1.43e-06, "MEAN_MOTION_DDOT": 0}, "tle": {"line1": "1 66922U 25285H   25350.96466779 -.00000143  00000+0  55791-5 0  9996", "line2": "2 66922  50.0087  99.9841 0006567 316.8536  43.1853 14.04783562  1503"}}, "geometry": {"type": "Point", "coordinates": [-55.07685830127189, -27.80741448827265]}}, {"type": "Feature", "properties": {"norad_id": 66923, "name": "HULIANWANG DIGUI-113", "group": "last-30-days", "lat": -30.518727853180508, "lon": -51.70351084254475, "alt_km": 879.7941596650007, "timestamp": "2025-12-17T07:00:45.614332+00:00", "meta": {"OBJECT_NAME": "HULIANWANG DIGUI-113", "OBJECT_ID": "2025-285J", "EPOCH": "2025-12-16T23:08:05.222976", "MEAN_MOTION": 14.05083251, "ECCENTRICITY": 0.00052005, "INCLINATION": 50.0097, "RA_OF_ASC_NODE": 99.9814, "ARG_OF_PERICENTER": 310.4688, "MEAN_ANOMALY": 49.5763, "EPHEMERIS_TYPE": 0, "CLASSIFICATION_TYPE": "U", "NORAD_CAT_ID": 66923, "ELEMENT_SET_NO": 999, "REV_AT_EPOCH": 150, "BSTAR": 9.2840458e-05, "MEAN_MOTION_DOT": -1e-08, "MEAN_MOTION_DDOT": 0}, "tle": {"line1": "1 66923U 25285J   25350.96394934 -.00000001  00000+0  92840-4 0  9998", "line2": "2 66923  50.0097  99.9814 0005200 310.4688  49.5763 14.05083251  1505"}}, "geometry": {"type": "Point", "coordinates": [-51.70351084254475, -30.518727853180508]}}, {"type": "Feature", "properties": {"norad_id": 66924, "name": "CZ-8A R/B", "group": "last-30-days", "lat": 47.488575027938005, "lon": -149.53151292559616, "alt_km": 701.5674747063385, "timestamp": "2025-12-17T07:00:45.614344+00:00", "meta": {"OBJECT_NAME": "CZ-8A R/B", "OBJECT_ID": "2025-285K", "EPOCH": "2025-12-16T15:26:06.313632", "MEAN_MOTION": 14.30503433, "ECCENTRICITY": 0.0119292, "INCLINATION": 50.0071, "RA_OF_ASC_NODE": 99.5388, "ARG_OF_PERICENTER": 120.5025, "MEAN_ANOMALY": 240.7732, "EPHEMERIS_TYPE": 0, "CLASSIFICATION_TYPE": "U", "NORAD_CAT_ID": 66924, "ELEMENT_SET_NO": 999, "REV_AT_EPOCH": 148, "BSTAR": 5.4156551e-05, "MEAN_MOTION_DOT": -1.3e-07, "MEAN_MOTION_DDOT": 0}, "tle": {"line1": "1 66924U 25285K   25350.64312863 -.00000013  00000+0  54157-4 0  9997", "line2": "2 66924  50.0071  99.5388 0119292 120.5025 240.7732 14.30503433  1487"}}, "geometry": {"type": "Point", "coordinates": [-149.53151292559616, 47.488575027938005]}}, {"type": "Feature", "properties": {"norad_id": 66925, "name": "STARLINK-35945", "group": "last-30-days", "lat": -47.22486494112602, "lon": -26.555143867313696, "alt_km": 318.1109820704696, "timestamp": "2025-12-17T07:00:45.614355+00:00", "meta": {"OBJECT_NAME": "STARLINK-35945", "OBJECT_ID": "2025-286A", "EPOCH": "2025-12-16T22:00:03.000096", "MEAN_MOTION": 15.87124496, "ECCENTRICITY": 5.806e-05, "INCLINATION": 53.157, "RA_OF_ASC_NODE": 29.4821, "ARG_OF_PERICENTER": 93.6502, "MEAN_ANOMALY": 213.7999, "EPHEMERIS_TYPE": 0, "CLASSIFICATION_TYPE": "U", "NORAD_CAT_ID": 66925, "ELEMENT_SET_NO": 999, "REV_AT_EPOCH": 266, "BSTAR": -0.0049340554, "MEAN_MOTION_DOT": -0.01151461, "MEAN_MOTION_DDOT": 0}, "tle": {"line1": "1 66925U 25286A   25350.91670139 -.01151461  00000+0 -49341-2 0  9995", "line2": "2 66925  53.1570  29.4821 0000580  93.6502 213.7999 15.87124496  2666"}}, "geometry": {"type": "Point", "coordinates": [-26.555143867313696, -47.22486494112602]}}]}